1 22076U 92052A   98030.19214024 -.00000038 +00000-0 +10000-3 0  9994
2 22076 066.0441 063.0464 0008341 265.1870 094.8191 12.80929909255944
1 22076U 92052A   98031.20712821 -.00000038 +00000-0 +10000-3 0  9995
2 22076 066.0440 060.9379 0008252 268.6924 091.3145 12.80930608256077
1 22076U 92052A   98032.22211628 -.00000038 +00000-0 +10000-3 0  9997
2 22076 066.0443 058.8282 0008386 268.7474 091.2580 12.80929709256205
1 22076U 92052A   98033.23710328 -.00000038 +00000-0 +10000-3 0  9990
2 22076 066.0444 056.7189 0008357 268.2499 091.7555 12.80929912256336
1 22076U 92052A   98034.17401464 -.00000038 +00000-0 +10000-3 0  9992
2 22076 066.0449 054.7725 0008400 268.8673 091.1373 12.80929995256450
1 22076U 92052A   98035.18900233 -.00000038 +00000-0 +10000-3 0  9992
2 22076 066.0451 052.6651 0008442 268.2809 091.7232 12.80929881256587
1 22076U 92052A   98036.20399032 -.00000038 +00000-0 +10000-3 0  9995
2 22076 066.0453 050.5573 0008414 268.4582 091.5469 12.80929855256714
1 22076U 92052A   98037.21897820 -.00000038 +00000-0 +10000-3 0  9995
2 22076 066.0453 048.4494 0008390 269.0961 090.9091 12.80929832256846
1 22076U 92052A   98038.23396556 -.00000038 +00000-0 +10000-3 0  9998
2 22076 066.0453 046.3417 0008383 269.5798 090.4253 12.80930185256975
1 22076U 92052A   98039.17087734 -.00000038 +00000-0 +10000-3 0  9997
2 22076 066.0446 044.3960 0008414 270.5385 089.4658 12.80930049257097
1 22076U 92052A   98040.18586455 -.00000038 +00000-0 +10000-3 0  9994
2 22076 066.0446 042.2870 0008482 270.5045 089.4998 12.80930066257223
1 22076U 92052A   98041.27892792 -.00000038 +00000-0 +10000-3 0  9999
2 22076 066.0452 040.0160 0008435 269.7558 090.2493 12.80930041257363
1 22076U 92052A   98042.13776335 -.00000038 +00000-0 +10000-3 0  9999
2 22076 066.0451 038.2318 0008399 269.2992 090.7060 12.80929960257477
1 22076U 92052A   98043.23082621 -.00000038 +00000-0 +10000-3 0  9999
2 22076 066.0451 035.9609 0008376 268.9287 091.0769 12.80930326257616
1 22076U 92052A   98044.24581321 -.00000038 +00000-0 +10000-3 0  9992
2 22076 066.0450 033.8531 0008428 268.0248 091.9792 12.80930186257745
1 22076U 92052A   98045.18272505 -.00000038 +00000-0 +10000-3 0  9997
2 22076 066.0452 031.9070 0008429 268.3127 091.6923 12.80930082257865
1 22076U 92052A   98046.19771229 -.00000038 +00000-0 +10000-3 0  9996
2 22076 066.0458 029.7992 0008435 268.7572 091.2478 12.80930269257996
1 22076U 92052A   98047.21269924 -.00000038 +00000-0 +10000-3 0  9994
2 22076 066.0466 027.6898 0008460 269.0471 090.9574 12.80930571258122
1 22076U 92052A   98048.14961184 -.00000038 +00000-0 +10000-3 0  9994
2 22076 066.0472 025.7440 0008421 270.4729 089.5321 12.80929745258248
1 22076U 92052A   98049.24267589 -.00000038 +00000-0 +10000-3 0  9994
2 22076 066.0468 023.4739 0008372 269.7963 090.2093 12.80929523258389
1 22076U 92052A   98050.17958778 -.00000038 +00000-0 +10000-3 0  9995
2 22076 066.0464 021.5280 0008210 269.3414 090.6663 12.80929693258502
1 22076U 92052A   98051.19457405 -.00000038 +00000-0 +10000-3 0  9999
2 22076 066.0462 019.4206 0008287 269.0434 090.9632 12.80930178258630
1 22076U 92052A   98052.20956142 -.00000038 +00000-0 +10000-3 0  9994
2 22076 066.0464 017.3126 0008254 269.6437 090.3632 12.80930382258768
1 22076U 92052A   98053.14647242 -.00000038 +00000-0 +10000-3 0  9996
2 22076 066.0470 015.3658 0008407 269.1763 090.8289 12.80930196258889
1 22076U 92052A   98054.16145948 -.00000038 +00000-0 +10000-3 0  9995
2 22076 066.0473 013.2579 0008421 269.1194 090.8861 12.80930473259015
1 22076U 92052A   98055.17644606 -.00000038 +00000-0 +10000-3 0  9992
2 22076 066.0476 011.1499 0008406 268.8227 091.1824 12.80930801259144
1 22076U 92052A   98056.19143324 -.00000038 +00000-0 +10000-3 0  9996
2 22076 066.0468 009.0417 0008442 268.4785 091.5264 12.80930641259274
1 22076U 92052A   98057.20642048 -.00000038 +00000-0 +10000-3 0  9996
2 22076 066.0472 006.9332 0008471 267.8075 092.1971 12.80930255259406
1 22076U 92052A   98058.22140792 -.00000038 +00000-0 +10000-3 0  9998
2 22076 066.0471 004.8260 0008442 267.8523 092.1525 12.80930149259539
1 22076U 92052A   98059.15831958 -.00000038 +00000-0 +10000-3 0  9992
2 22076 066.0468 002.8807 0008418 266.7012 093.3041 12.80929811259657
1 22076U 92052A   98060.17330749 -.00000038 +00000-0 +10000-3 0  9998
2 22076 066.0467 000.7730 0008362 268.0053 092.0007 12.80930100259781
1 22076U 92052A   98061.18829440 -.00000038 +00000-0 +10000-3 0  9991
2 22076 066.0469 358.6652 0008372 268.8397 091.1660 12.80930530259918
1 22076U 92052A   98063.45249837 -.00000038  00000-0  10000-3 0  9999
2 22076 066.0467 353.9629 0008308 269.8596 090.1469 12.80929763260205
1 22076U 92052A   98067.51244657 -.00000038  00000-0  10000-3 0  9995
2 22076 066.0471 345.5278 0008316 269.7828 090.2251 12.80930455260720
1 22076U 92052A   98071.88470183 -.00000038  00000-0  10000-3 0  9995
2 22076 066.0473 336.4503 0008133 269.1031 090.9050 12.80930115261288
1 22076U 92052A   98076.10080170 -.00000038  00000-0  10000-3 0  9998
2 22076 066.0465 327.6923 0008220 268.3446 091.6627 12.80930684261824
1 22076U 92052A   98080.31690161 -.00000038  00000-0  10000-3 0  9993
2 22076 066.0454 318.9342 0008242 269.5494 090.4578 12.80930406262364
1 22076U 92052A   98084.53300253 -.00000038  00000-0  10000-3 0  9991
2 22076 066.0439 310.1780 0008137 267.2244 092.7841 12.80930015262902
1 22076U 92052A   98088.59294790 -.00000038  00000-0  10000-3 0  9999
2 22076 066.0437 301.7456 0008245 268.0719 091.9350 12.80931394263427
1 22076U 92052A   98092.88712495 -.00000038  00000-0  10000-3 0  9993
2 22076 066.0424 292.8217 0008269 272.1722 087.8350 12.80930267263976
1 22076U 92052A   98097.18129905 -.00000038  00000-0  10000-3 0  9999
2 22076 066.0426 283.9022 0008209 268.5299 091.4770 12.80930746264526
1 22076U 92052A   98098.11821059 -.00000038 +00000-0 +10000-3 0  9992
2 22076 066.0423 281.9570 0008190 269.3842 090.6234 12.80930583264649
1 22076U 92052A   98099.13319728 -.00000038 +00000-0 +10000-3 0  9990
2 22076 066.0424 279.8492 0008171 269.5285 090.4795 12.80930759264770
1 22076U 92052A   98100.14818486 -.00000038 +00000-0 +10000-3 0  9999
2 22076 066.0414 277.7404 0008851 284.9223 075.0597 12.80929826264904
1 22076U 92052A   98101.16317145 -.00000038 +00000-0 +10000-3 0  9998
2 22076 066.0413 275.6330 0008243 269.8702 090.1370 12.80930559265034
1 22076U 92052A   98102.17815736 -.00000038 +00000-0 +10000-3 0  9999
2 22076 066.0398 273.5226 0008251 269.0790 090.9279 12.80931028265167
1 22076U 92052A   98104.13005553 -.00000038 +00000-0 +10000-3 0  9995
2 22076 066.0410 269.4688 0008218 269.8507 090.1563 12.80930515265411
1 22076U 92052A   98105.14504258 -.00000038 +00000-0 +10000-3 0  9993
2 22076 066.0423 267.3608 0008177 269.4700 090.5376 12.80930344265549
1 22076U 92052A   98106.23810433 -.00000038 +00000-0 +10000-3 0  9999
2 22076 066.0434 265.0904 0008176 268.2292 091.7782 12.80930924265680
1 22076U 92052A   98107.17501637 -.00000038 +00000-0 +10000-3 0  9996
2 22076 066.0445 263.1449 0008157 268.9528 091.0554 12.80930562265805
1 22076U 92052A   98108.19000372 -.00000038 +00000-0 +10000-3 0  9999
2 22076 066.0442 261.0345 0008362 267.6803 092.3250 12.80929996265934
1 22076U 92052A   98109.12691454 -.00000038 +00000-0 +10000-3 0  9990
2 22076 066.0434 259.0870 0008485 266.8042 093.2046 12.80930503266050
1 22076U 92052A   98110.14190104 -.00000038 +00000-0 +10000-3 0  9990
2 22076 066.0431 256.9799 0008347 267.0171 092.9901 12.80930734266182
1 22076U 92052A   98111.15688820 -.00000038 +00000-0 +10000-3 0  9999
2 22076 066.0430 254.8721 0008326 267.6021 092.4051 12.80930676266311
1 22076U 92052A   98112.17187480 -.00000038 +00000-0 +10000-3 0  9998
2 22076 066.0434 252.7645 0008304 267.8921 092.1157 12.80930954266441
1 22076U 92052A   98113.10878586 -.00000038 +00000-0 +10000-3 0  9996
2 22076 066.0439 250.8190 0008183 268.0489 091.9594 12.80931111266568
1 22076U 92052A   98114.12377262 -.00000038 +00000-0 +10000-3 0  9994
2 22076 066.0444 248.7112 0008175 267.9017 092.1063 12.80931044266693
1 22076U 92052A   98115.13876025 -.00000038 +00000-0 +10000-3 0  9997
2 22076 066.0442 246.6030 0008135 267.8663 092.1436 12.80930819266827
1 22076U 92052A   98116.15374788 -.00000038 +00000-0 +10000-3 0  9999
2 22076 066.0442 244.4943 0008144 268.1971 091.8131 12.80930517266959
1 22076U 92052A   98117.16873462 -.00000038 +00000-0 +10000-3 0  9994
2 22076 066.0440 242.3863 0008191 267.7663 092.2414 12.80930484267087
1 22076U 92052A   98118.10564627 -.00000038 +00000-0 +10000-3 0  9999
2 22076 066.0441 240.4407 0008188 267.6140 092.3952 12.80930460267202
1 22076U 92052A   98119.12063339 -.00000038 +00000-0 +10000-3 0  9996
2 22076 066.0448 238.3327 0008245 266.9898 093.0192 12.80930531267339
1 22076U 92052A   98120.13561991 -.00000038 +00000-0 +10000-3 0  9996
2 22076 066.0453 236.2243 0008158 267.5502 092.4582 12.80931071267461
1 22076U 92052A   98121.15060758 -.00000038 +00000-0 +10000-3 0  9994
2 22076 066.0455 234.1173 0008187 268.1596 091.8480 12.80930684267597
1 22076U 92052A   98122.16559490 -.00000038 +00000-0 +10000-3 0  9992
2 22076 066.0460 232.0087 0008189 268.0576 091.9501 12.80930484267721
1 22076U 92052A   98123.10250591 -.00000038 +00000-0 +10000-3 0  9997
2 22076 066.0454 230.0628 0008259 268.6160 091.3909 12.80930783267847
1 22076U 92052A   98124.19556907 -.00000038 +00000-0 +10000-3 0  9997
2 22076 066.0448 227.7928 0008311 267.8345 092.1715 12.80930430267989
1 22076U 92052A   98125.52286036 -.00000038 +00000-0 +10000-3 0  9998
2 22076 066.0446 225.0364 0008306 267.6670 092.3393 12.80930384268157
1 22076U 92052A   98126.14746743 -.00000038 +00000-0 +10000-3 0  9993
2 22076 066.0453 223.7395 0008322 268.0430 091.9633 12.80930854268234
1 22076U 92052A   98127.16245530 -.00000038 +00000-0 +10000-3 0  9994
2 22076 066.0454 221.6325 0008325 268.9917 091.0149 12.80930482268361
1 22076U 92052A   98128.17744238 -.00000038 +00000-0 +10000-3 0  9995
2 22076 066.0454 219.5243 0008365 268.5584 091.4473 12.80930474268495
